TRANSPORTER-11 OBJECT A 
1 60468U 24149A   26068.74646182  .00010774  00000+0  36054-3 0  9993
2 60468  97.3780 149.0949 0003110 191.0010 169.1164 15.31141332 86830
STARLINK-36490          
1 67305U 26002A   26068.04462430  .00030425  00000+0  11109-2 0  9993
2 67305  43.0048 328.6178 0002224 263.5738  96.4861 15.27570065 11049
